JILIN-1 KUANFU 01       
1 45016U 20003A   26202.19603355  .00001930  00000+0  11967-3 0  9994
2 45016  97.5014 275.4885 0009839 176.3140 183.8164 15.10888880360461
JILIN-1 KUANFU-01B      
1 49003U 21061A   26202.30524090  .00000625  00000+0  42530-4 0  9991
2 49003  97.5189 277.8641 0005413 312.7375  47.3398 15.09819492278495
JILIN-1 KUANFU 01C      
1 52443U 22048A   26202.23168987  .00002055  00000+0  13132-3 0  9994
2 52443  97.5246 278.7833 0017829 198.5520 161.5061 15.09619975232333
JILIN-1 KUANFU 02A      
1 57696U 23127A   26202.24611672  .00002777  00000+0  17072-3 0  9991
2 57696  97.5564 295.6359 0010710 213.7694 146.2855 15.10843063160774
JILIN-01 KUANFU 02B 1   
1 61189U 24169A   26202.26689313  .00002513  00000+0  16262-3 0  9997
2 61189  97.5574 291.2683 0001089 304.1671  55.9454 15.09082731100969
JILIN-01 KUANFU 02B 2   
1 61190U 24169B   26202.24666834  .00002527  00000+0  16362-3 0  9996
2 61190  97.5566 290.6321 0004969 251.8217 108.2471 15.09045494100964
JILIN-01 KUANFU 02B 3   
1 61191U 24169C   26202.25546990  .00002701  00000+0  17415-3 0  9992
2 61191  97.5563 291.0738 0013631 184.7264 175.3838 15.09084238100962
JILIN-01 KUANFU 02B 4   
1 61192U 24169D   26202.22429469  .00002263  00000+0  14656-3 0  9998
2 61192  97.5522 290.5667 0014545 144.1046 216.1163 15.09069483100966
JILIN-01 KUANFU 02B 5   
1 61193U 24169E   26202.27751138  .00002391  00000+0  15455-3 0  9995
2 61193  97.5576 291.4199 0013722 166.8466 193.3123 15.09101045100973
JILIN-01 KUANFU 02B 6   
1 61194U 24169F   26202.23499721  .00002193  00000+0  14213-3 0  9990
2 61194  97.5555 291.2684 0016121 199.8294 160.2310 15.09060888100979
