{"fetched_at":"2026-07-21T17:53:34.868Z","source":"https://celestrak.org/NORAD/elements/gp.php?NAME=JILIN&FORMAT=JSON","constellation":"jilin-1-kuanfu","records":[{"OBJECT_NAME":"JILIN-1 KUANFU 01","OBJECT_ID":"2020-003A","EPOCH":"2026-07-21T04:42:17.298720","CLASSIFICATION_TYPE":"U","MEAN_MOTION":15.1088888,"ECCENTRICITY":0.00098394,"INCLINATION":97.5014,"RA_OF_ASC_NODE":275.4885,"ARG_OF_PERICENTER":176.314,"MEAN_ANOMALY":183.8164,"EPHEMERIS_TYPE":0,"NORAD_CAT_ID":45016,"ELEMENT_SET_NO":999,"REV_AT_EPOCH":36046,"BSTAR":0.00011966747,"MEAN_MOTION_DOT":0.0000193,"MEAN_MOTION_DDOT":0},{"OBJECT_NAME":"JILIN-1 KUANFU-01B","OBJECT_ID":"2021-061A","EPOCH":"2026-07-21T07:19:32.813760","CLASSIFICATION_TYPE":"U","MEAN_MOTION":15.09819492,"ECCENTRICITY":0.00054131,"INCLINATION":97.5189,"RA_OF_ASC_NODE":277.8641,"ARG_OF_PERICENTER":312.7375,"MEAN_ANOMALY":47.3398,"EPHEMERIS_TYPE":0,"NORAD_CAT_ID":49003,"ELEMENT_SET_NO":999,"REV_AT_EPOCH":27849,"BSTAR":0.000042530226,"MEAN_MOTION_DOT":0.00000625,"MEAN_MOTION_DDOT":0},{"OBJECT_NAME":"JILIN-1 KUANFU 01C","OBJECT_ID":"2022-048A","EPOCH":"2026-07-21T05:33:38.004768","CLASSIFICATION_TYPE":"U","MEAN_MOTION":15.09619975,"ECCENTRICITY":0.00178292,"INCLINATION":97.5246,"RA_OF_ASC_NODE":278.7833,"ARG_OF_PERICENTER":198.552,"MEAN_ANOMALY":161.5061,"EPHEMERIS_TYPE":0,"NORAD_CAT_ID":52443,"ELEMENT_SET_NO":999,"REV_AT_EPOCH":23233,"BSTAR":0.00013132169,"MEAN_MOTION_DOT":0.00002055,"MEAN_MOTION_DDOT":0},{"OBJECT_NAME":"JILIN-1 KUANFU 02A","OBJECT_ID":"2023-127A","EPOCH":"2026-07-21T05:54:24.484608","CLASSIFICATION_TYPE":"U","MEAN_MOTION":15.10843063,"ECCENTRICITY":0.00107107,"INCLINATION":97.5564,"RA_OF_ASC_NODE":295.6359,"ARG_OF_PERICENTER":213.7694,"MEAN_ANOMALY":146.2855,"EPHEMERIS_TYPE":0,"NORAD_CAT_ID":57696,"ELEMENT_SET_NO":999,"REV_AT_EPOCH":16077,"BSTAR":0.00017071924,"MEAN_MOTION_DOT":0.00002777,"MEAN_MOTION_DDOT":0},{"OBJECT_NAME":"JILIN-01 KUANFU 02B 1","OBJECT_ID":"2024-169A","EPOCH":"2026-07-21T06:24:19.566432","CLASSIFICATION_TYPE":"U","MEAN_MOTION":15.09082731,"ECCENTRICITY":0.00010899,"INCLINATION":97.5574,"RA_OF_ASC_NODE":291.2683,"ARG_OF_PERICENTER":304.1671,"MEAN_ANOMALY":55.9454,"EPHEMERIS_TYPE":0,"NORAD_CAT_ID":61189,"ELEMENT_SET_NO":999,"REV_AT_EPOCH":10096,"BSTAR":0.00016261802,"MEAN_MOTION_DOT":0.00002513,"MEAN_MOTION_DDOT":0},{"OBJECT_NAME":"JILIN-01 KUANFU 02B 2","OBJECT_ID":"2024-169B","EPOCH":"2026-07-21T05:55:12.144576","CLASSIFICATION_TYPE":"U","MEAN_MOTION":15.09045494,"ECCENTRICITY":0.00049698,"INCLINATION":97.5566,"RA_OF_ASC_NODE":290.6321,"ARG_OF_PERICENTER":251.8217,"MEAN_ANOMALY":108.2471,"EPHEMERIS_TYPE":0,"NORAD_CAT_ID":61190,"ELEMENT_SET_NO":999,"REV_AT_EPOCH":10096,"BSTAR":0.00016361842,"MEAN_MOTION_DOT":0.00002527,"MEAN_MOTION_DDOT":0},{"OBJECT_NAME":"JILIN-01 KUANFU 02B 3","OBJECT_ID":"2024-169C","EPOCH":"2026-07-21T06:07:52.599360","CLASSIFICATION_TYPE":"U","MEAN_MOTION":15.09084238,"ECCENTRICITY":0.00136319,"INCLINATION":97.5563,"RA_OF_ASC_NODE":291.0738,"ARG_OF_PERICENTER":184.7264,"MEAN_ANOMALY":175.3838,"EPHEMERIS_TYPE":0,"NORAD_CAT_ID":61191,"ELEMENT_SET_NO":999,"REV_AT_EPOCH":10096,"BSTAR":0.00017414901,"MEAN_MOTION_DOT":0.00002701,"MEAN_MOTION_DDOT":0},{"OBJECT_NAME":"JILIN-01 KUANFU 02B 4","OBJECT_ID":"2024-169D","EPOCH":"2026-07-21T05:22:59.061216","CLASSIFICATION_TYPE":"U","MEAN_MOTION":15.09069483,"ECCENTRICITY":0.00145457,"INCLINATION":97.5522,"RA_OF_ASC_NODE":290.5667,"ARG_OF_PERICENTER":144.1046,"MEAN_ANOMALY":216.1163,"EPHEMERIS_TYPE":0,"NORAD_CAT_ID":61192,"ELEMENT_SET_NO":999,"REV_AT_EPOCH":10096,"BSTAR":0.00014655908,"MEAN_MOTION_DOT":0.00002263,"MEAN_MOTION_DDOT":0},{"OBJECT_NAME":"JILIN-01 KUANFU 02B 5","OBJECT_ID":"2024-169E","EPOCH":"2026-07-21T06:39:36.983232","CLASSIFICATION_TYPE":"U","MEAN_MOTION":15.09101045,"ECCENTRICITY":0.0013722,"INCLINATION":97.5576,"RA_OF_ASC_NODE":291.4199,"ARG_OF_PERICENTER":166.8466,"MEAN_ANOMALY":193.3123,"EPHEMERIS_TYPE":0,"NORAD_CAT_ID":61193,"ELEMENT_SET_NO":999,"REV_AT_EPOCH":10097,"BSTAR":0.00015454594,"MEAN_MOTION_DOT":0.00002391,"MEAN_MOTION_DDOT":0},{"OBJECT_NAME":"JILIN-01 KUANFU 02B 6","OBJECT_ID":"2024-169F","EPOCH":"2026-07-21T05:38:23.758944","CLASSIFICATION_TYPE":"U","MEAN_MOTION":15.09060888,"ECCENTRICITY":0.00161217,"INCLINATION":97.5555,"RA_OF_ASC_NODE":291.2684,"ARG_OF_PERICENTER":199.8294,"MEAN_ANOMALY":160.231,"EPHEMERIS_TYPE":0,"NORAD_CAT_ID":61194,"ELEMENT_SET_NO":999,"REV_AT_EPOCH":10097,"BSTAR":0.00014213404,"MEAN_MOTION_DOT":0.00002193,"MEAN_MOTION_DDOT":0}]}
